IRIDIUM 112             
1 41925U 17003J   25250.15243359  .00000348  00000+0  11709-3 0  9993
2 41925  86.4000 206.5162 0002149  85.7237 274.4205 14.34216815452708
IRIDIUM 111             
1 41926U 17003K   25250.13974959  .00000112  00000+0  32798-4 0  9990
2 41926  86.4001 206.5856 0002337  88.3734 271.7730 14.34217273452689
IRIDIUM 113             
1 42803U 17039A   25250.04994344  .00000007  00000+0 -46072-5 0  9999
2 42803  86.3911  80.5262 0001814  88.9509 271.1894 14.34217482430604
IRIDIUM 123             
1 42804U 17039B   25250.09142442  .00000349  00000+0  11756-3 0  9996
2 42804  86.3941 112.0085 0002327  92.6426 267.5036 14.34217348429372
IRIDIUM 120             
1 42805U 17039C   25250.25290307 -.00000004  00000+0 -85128-5 0  9995
2 42805  86.3899  80.2601 0002304  86.8362 273.3097 14.34216962430627
IRIDIUM 115             
1 42806U 17039D   25250.24875087  .00000143  00000+0  36468-4 0  9993
2 42806  86.4436  80.3520 0002732  99.3481 260.8029 14.43282312433455
IRIDIUM 118             
1 42807U 17039E   25250.12313542  .00000007  00000+0 -47266-5 0  9993
2 42807  86.3943 111.9944 0001767  86.6159 273.5239 14.34217405429378
IRIDIUM 117             
1 42808U 17039F   25250.14218060  .00000346  00000+0  11636-3 0  9990
2 42808  86.3941 111.9470 0002185  92.6493 267.4953 14.34220051429404
